CCSDS_OMM_VERS = 2.0
CREATION_DATE  = 
ORIGINATOR     = 

OBJECT_NAME    = IDEFIX & ARIANE 42P R/B
OBJECT_ID      = 2002-021B
CENTER_NAME    = EARTH
REF_FRAME      = TEME
TIME_SYSTEM    = UTC
MEAN_ELEMENT_THEORY = SGP/SGP4

EPOCH          = 2026-02-24T10:05:55.492224
MEAN_MOTION    = 14.31015559
ECCENTRICITY   = .00108857
INCLINATION    = 98.5858
RA_OF_ASC_NODE = 354.1869
ARG_OF_PERICENTER = 223.1821
MEAN_ANOMALY   = 136.8509

EPHEMERIS_TYPE = 0
CLASSIFICATION_TYPE = U
NORAD_CAT_ID   = 27422
ELEMENT_SET_NO = 999
REV_AT_EPOCH   = 24212
BSTAR          = .12419474E-3
MEAN_MOTION_DOT = .283E-5
MEAN_MOTION_DDOT = 0

CCSDS_OMM_VERS = 2.0
CREATION_DATE  = 
ORIGINATOR     = 

OBJECT_NAME    = AQUA
OBJECT_ID      = 2002-022A
CENTER_NAME    = EARTH
REF_FRAME      = TEME
TIME_SYSTEM    = UTC
MEAN_ELEMENT_THEORY = SGP/SGP4

EPOCH          = 2026-02-25T03:58:12.909216
MEAN_MOTION    = 14.61941186
ECCENTRICITY   = .0000892
INCLINATION    = 98.4151
RA_OF_ASC_NODE = 23.3046
ARG_OF_PERICENTER = 48.9783
MEAN_ANOMALY   = 42.2171

EPHEMERIS_TYPE = 0
CLASSIFICATION_TYPE = U
NORAD_CAT_ID   = 27424
ELEMENT_SET_NO = 999
REV_AT_EPOCH   = 26690
BSTAR          = .19981E-3
MEAN_MOTION_DOT = .951E-5
MEAN_MOTION_DDOT = 0

CCSDS_OMM_VERS = 2.0
CREATION_DATE  = 
ORIGINATOR     = 

OBJECT_NAME    = CZ-4B R/B
OBJECT_ID      = 2002-024C
CENTER_NAME    = EARTH
REF_FRAME      = TEME
TIME_SYSTEM    = UTC
MEAN_ELEMENT_THEORY = SGP/SGP4

EPOCH          = 2026-02-25T02:53:21.740928
MEAN_MOTION    = 14.14545069
ECCENTRICITY   = .0050999
INCLINATION    = 98.8870
RA_OF_ASC_NODE = 109.5888
ARG_OF_PERICENTER = 59.4948
MEAN_ANOMALY   = 320.7455

EPHEMERIS_TYPE = 0
CLASSIFICATION_TYPE = U
NORAD_CAT_ID   = 27432
ELEMENT_SET_NO = 999
REV_AT_EPOCH   = 22746
BSTAR          = .36761E-4
MEAN_MOTION_DOT = .27E-6
MEAN_MOTION_DDOT = 0

CCSDS_OMM_VERS = 2.0
CREATION_DATE  = 
ORIGINATOR     = 

OBJECT_NAME    = MIDORI II (ADEOS-II)
OBJECT_ID      = 2002-056A
CENTER_NAME    = EARTH
REF_FRAME      = TEME
TIME_SYSTEM    = UTC
MEAN_ELEMENT_THEORY = SGP/SGP4

EPOCH          = 2026-02-25T03:11:13.675488
MEAN_MOTION    = 14.29273949
ECCENTRICITY   = .0001977
INCLINATION    = 98.7746
RA_OF_ASC_NODE = 14.5257
ARG_OF_PERICENTER = 60.4867
MEAN_ANOMALY   = 299.6511

EPHEMERIS_TYPE = 0
CLASSIFICATION_TYPE = U
NORAD_CAT_ID   = 27597
ELEMENT_SET_NO = 999
REV_AT_EPOCH   = 20850
BSTAR          = .11055E-3
MEAN_MOTION_DOT = .236E-5
MEAN_MOTION_DDOT = 0

CCSDS_OMM_VERS = 2.0
CREATION_DATE  = 
ORIGINATOR     = 

OBJECT_NAME    = H-2A R/B
OBJECT_ID      = 2002-056E
CENTER_NAME    = EARTH
REF_FRAME      = TEME
TIME_SYSTEM    = UTC
MEAN_ELEMENT_THEORY = SGP/SGP4

EPOCH          = 2026-02-25T03:19:44.279616
MEAN_MOTION    = 14.33750998
ECCENTRICITY   = .0069715
INCLINATION    = 98.3178
RA_OF_ASC_NODE = 16.9839
ARG_OF_PERICENTER = 198.1032
MEAN_ANOMALY   = 187.2472

EPHEMERIS_TYPE = 0
CLASSIFICATION_TYPE = U
NORAD_CAT_ID   = 27601
ELEMENT_SET_NO = 999
REV_AT_EPOCH   = 21231
BSTAR          = .10326E-3
MEAN_MOTION_DOT = .253E-5
MEAN_MOTION_DDOT = 0

CCSDS_OMM_VERS = 2.0
CREATION_DATE  = 
ORIGINATOR     = 

OBJECT_NAME    = CZ-4B R/B
OBJECT_ID      = 2003-049C
CENTER_NAME    = EARTH
REF_FRAME      = TEME
TIME_SYSTEM    = UTC
MEAN_ELEMENT_THEORY = SGP/SGP4

EPOCH          = 2026-02-24T22:28:33.175776
MEAN_MOTION    = 14.55005157
ECCENTRICITY   = .0046993
INCLINATION    = 98.6867
RA_OF_ASC_NODE = 50.3424
ARG_OF_PERICENTER = 270.7342
MEAN_ANOMALY   = 88.8470

EPHEMERIS_TYPE = 0
CLASSIFICATION_TYPE = U
NORAD_CAT_ID   = 28059
ELEMENT_SET_NO = 999
REV_AT_EPOCH   = 18474
BSTAR          = .96499E-4
MEAN_MOTION_DOT = .369E-5
MEAN_MOTION_DDOT = 0

CCSDS_OMM_VERS = 2.0
CREATION_DATE  = 
ORIGINATOR     = 

OBJECT_NAME    = CZ-2C R/B
OBJECT_ID      = 2004-012C
CENTER_NAME    = EARTH
REF_FRAME      = TEME
TIME_SYSTEM    = UTC
MEAN_ELEMENT_THEORY = SGP/SGP4

EPOCH          = 2026-02-25T03:07:37.771392
MEAN_MOTION    = 15.62913951
ECCENTRICITY   = .0013946
INCLINATION    = 97.7262
RA_OF_ASC_NODE = 120.2468
ARG_OF_PERICENTER = 0.1360
MEAN_ANOMALY   = 359.9899

EPHEMERIS_TYPE = 0
CLASSIFICATION_TYPE = U
NORAD_CAT_ID   = 28222
ELEMENT_SET_NO = 999
REV_AT_EPOCH   = 20231
BSTAR          = .49182E-3
MEAN_MOTION_DOT = .44691E-3
MEAN_MOTION_DDOT = 0

CCSDS_OMM_VERS = 2.0
CREATION_DATE  = 
ORIGINATOR     = 

OBJECT_NAME    = SL-16 R/B
OBJECT_ID      = 2004-021B
CENTER_NAME    = EARTH
REF_FRAME      = TEME
TIME_SYSTEM    = UTC
MEAN_ELEMENT_THEORY = SGP/SGP4

EPOCH          = 2026-02-25T00:16:43.863456
MEAN_MOTION    = 14.14599157
ECCENTRICITY   = .0003396
INCLINATION    = 70.9989
RA_OF_ASC_NODE = 259.1002
ARG_OF_PERICENTER = 38.5046
MEAN_ANOMALY   = 321.6318

EPHEMERIS_TYPE = 0
CLASSIFICATION_TYPE = U
NORAD_CAT_ID   = 28353
ELEMENT_SET_NO = 999
REV_AT_EPOCH   = 12104
BSTAR          = .77926E-4
MEAN_MOTION_DOT = .102E-5
MEAN_MOTION_DDOT = 0

CCSDS_OMM_VERS = 2.0
CREATION_DATE  = 
ORIGINATOR     = 

OBJECT_NAME    = CZ-4B R/B
OBJECT_ID      = 2004-035C
CENTER_NAME    = EARTH
REF_FRAME      = TEME
TIME_SYSTEM    = UTC
MEAN_ELEMENT_THEORY = SGP/SGP4

EPOCH          = 2026-02-25T01:57:30.473280
MEAN_MOTION    = 15.28803002
ECCENTRICITY   = .0032592
INCLINATION    = 97.3529
RA_OF_ASC_NODE = 90.4769
ARG_OF_PERICENTER = 16.7322
MEAN_ANOMALY   = 343.4985

EPHEMERIS_TYPE = 0
CLASSIFICATION_TYPE = U
NORAD_CAT_ID   = 28415
ELEMENT_SET_NO = 999
REV_AT_EPOCH   = 17798
BSTAR          = .25799E-3
MEAN_MOTION_DOT = .726E-4
MEAN_MOTION_DDOT = 0

CCSDS_OMM_VERS = 2.0
CREATION_DATE  = 
ORIGINATOR     = 

OBJECT_NAME    = CZ-2C R/B
OBJECT_ID      = 2004-046B
CENTER_NAME    = EARTH
REF_FRAME      = TEME
TIME_SYSTEM    = UTC
MEAN_ELEMENT_THEORY = SGP/SGP4

EPOCH          = 2026-02-24T12:19:30.186048
MEAN_MOTION    = 14.26987138
ECCENTRICITY   = .0139081
INCLINATION    = 98.1989
RA_OF_ASC_NODE = 331.3167
ARG_OF_PERICENTER = 193.3740
MEAN_ANOMALY   = 166.3741

EPHEMERIS_TYPE = 0
CLASSIFICATION_TYPE = U
NORAD_CAT_ID   = 28480
ELEMENT_SET_NO = 999
REV_AT_EPOCH   = 10662
BSTAR          = .56961E-4
MEAN_MOTION_DOT = .112E-5
MEAN_MOTION_DDOT = 0

CCSDS_OMM_VERS = 2.0
CREATION_DATE  = 
ORIGINATOR     = 

OBJECT_NAME    = ARIANE 5 R/B
OBJECT_ID      = 2004-049H
CENTER_NAME    = EARTH
REF_FRAME      = TEME
TIME_SYSTEM    = UTC
MEAN_ELEMENT_THEORY = SGP/SGP4

EPOCH          = 2026-02-24T16:44:54.201984
MEAN_MOTION    = 14.85237929
ECCENTRICITY   = .00848532
INCLINATION    = 98.2606
RA_OF_ASC_NODE = 223.6706
ARG_OF_PERICENTER = 33.9362
MEAN_ANOMALY   = 326.7240

EPHEMERIS_TYPE = 0
CLASSIFICATION_TYPE = U
NORAD_CAT_ID   = 28499
ELEMENT_SET_NO = 999
REV_AT_EPOCH   = 14386
BSTAR          = .95475659E-4
MEAN_MOTION_DOT = .809E-5
MEAN_MOTION_DDOT = 0

CCSDS_OMM_VERS = 2.0
CREATION_DATE  = 
ORIGINATOR     = 

OBJECT_NAME    = CZ-2D R/B
OBJECT_ID      = 2005-024B
CENTER_NAME    = EARTH
REF_FRAME      = TEME
TIME_SYSTEM    = UTC
MEAN_ELEMENT_THEORY = SGP/SGP4

EPOCH          = 2026-02-25T00:06:36.235584
MEAN_MOTION    = 15.58898111
ECCENTRICITY   = .0007466
INCLINATION    = 97.3617
RA_OF_ASC_NODE = 70.6981
ARG_OF_PERICENTER = 76.9454
MEAN_ANOMALY   = 283.2635

EPHEMERIS_TYPE = 0
CLASSIFICATION_TYPE = U
NORAD_CAT_ID   = 28738
ELEMENT_SET_NO = 999
REV_AT_EPOCH   = 13780
BSTAR          = .46964E-3
MEAN_MOTION_DOT = .36426E-3
MEAN_MOTION_DDOT = 0

